{"type": "FeatureCollection", "name": "rute", "crs": {"type": "name", "properties": {"name": "urn:ogc:def:crs:OGC:1.3:CRS84"}}, "features": [{"type": "Feature", "properties": {"trip_id": 1, "nama": "Trip 1", "kendaraan": "Bus AKAP", "kode_kendaraan": "K-03", "trayek": "Cilegon – Jakarta", "arah": "Cilegon ke Jakarta", "hari": "Senin", "tanggal": "03-03-2025", "jam_mulai": "13:09", "jam_selesai": "17:26", "jam_berangkat": 13, "durasi_menit": 257.0, "kecepatan_rata": 29.6, "kecepatan_maks": 49.7, "jumlah_titik": 515, "jarak_km": 126.8, "liter_total": 41.19, "liter_jalan": 39.83, "liter_idle": 1.36, "menit_idle": 37.0, "liter_per_100km": 32.48, "km_per_liter": 3.08, "biaya_rp": 280065, "liter_boros": 4.96, "biaya_boros_rp": 33718, "jenis_bbm": "Biosolar", "harga_per_liter": 6800, "malam": false}, "geometry": {"type": "LineString", "coordinates": [[106.022506, -5.999779], [106.022511, -5.996496], [106.027639, -5.994808], [106.031052, -5.990071], [106.032171, -5.987669], [106.031889, -5.985093], [106.033372, -5.983734], [106.038207, -5.987834], [106.040676, -5.989526], [106.044039, -5.990004], [106.047638, -5.989794], [106.050161, -5.990604], [106.052498, -5.992515], [106.064622, -6.003808], [106.06685, -6.005548], [106.072215, -6.009105], [106.083247, -6.0146], [106.086259, -6.016535], [106.09125, -6.020605], [106.095956, -6.025719], [106.104653, -6.039032], [106.10897, -6.043676], [106.115914, -6.050009], [106.118063, -6.052583], [106.121478, -6.057811], [106.134926, -6.08289], [106.137426, -6.085353], [106.140356, -6.086685], [106.162503, -6.094438], [106.165102, -6.095689], [106.170121, -6.098978], [106.174462, -6.103063], [106.185924, -6.115074], [106.188067, -6.117837], [106.192347, -6.126314], [106.194417, -6.128194], [106.199999, -6.130494], [106.218111, -6.136945], [106.221298, -6.137885], [106.227764, -6.138275], [106.259232, -6.138815], [106.265421, -6.140133], [106.276077, -6.143234], [106.279242, -6.143404], [106.281896, -6.143238], [106.285155, -6.142455], [106.287264, -6.140153], [106.290606, -6.139909], [106.293732, -6.138545], [106.298766, -6.13586], [106.303258, -6.138424], [106.30534, -6.140422], [106.309829, -6.148499], [106.311652, -6.150779], [106.314028, -6.15319], [106.316712, -6.15451], [106.32058, -6.159104], [106.322983, -6.160685], [106.3255, -6.161925], [106.327963, -6.163602], [106.332929, -6.168356], [106.338361, -6.176666], [106.339429, -6.178936], [106.341088, -6.184313], [106.344314, -6.191822], [106.347129, -6.196524], [106.349529, -6.202758], [106.351166, -6.205429], [106.35393, -6.207259], [106.356679, -6.207766], [106.359869, -6.207751], [106.365408, -6.205258], [106.371013, -6.206535], [106.374029, -6.206281], [106.376048, -6.208159], [106.378512, -6.20994], [106.38124, -6.209366], [106.383892, -6.207646], [106.386882, -6.208428], [106.389574, -6.210522], [106.391892, -6.211734], [106.394732, -6.213652], [106.39745, -6.214015], [106.400555, -6.2152], [106.406698, -6.215928], [106.417157, -6.218717], [106.419665, -6.220299], [106.423646, -6.225579], [106.428696, -6.227776], [106.431485, -6.228695], [106.434081, -6.227494], [106.436244, -6.225101], [106.441226, -6.218243], [106.445495, -6.21347], [106.457939, -6.196853], [106.45936, -6.198823], [106.458974, -6.201742], [106.460468, -6.203727], [106.463013, -6.204828], [106.465812, -6.205595], [106.468246, -6.205959], [106.472526, -6.205695], [106.47737, -6.204113], [106.481947, -6.20183], [106.486923, -6.200121], [106.491961, -6.200024], [106.513857, -6.204633], [106.518909, -6.205208], [106.531919, -6.205692], [106.542145, -6.207505], [106.544234, -6.208134], [106.546249, -6.209117], [106.551903, -6.213676], [106.556051, -6.216568], [106.56051, -6.218766], [106.565884, -6.220348], [106.572779, -6.221377], [106.613142, -6.225024], [106.619843, -6.224553], [106.6663, -6.217895], [106.693366, -6.210386], [106.695996, -6.20923], [106.698367, -6.207861], [106.717357, -6.193149], [106.719562, -6.19195], [106.722305, -6.190937], [106.725212, -6.190524], [106.727504, -6.19081], [106.729653, -6.190077], [106.730334, -6.187984], [106.729929, -6.185237], [106.72824, -6.177787], [106.727119, -6.165122], [106.726966, -6.158939], [106.727273, -6.155047], [106.727294, -6.150631], [106.729634, -6.139513], [106.729932, -6.133348], [106.729728, -6.126987], [106.729883, -6.125105], [106.730333, -6.123458], [106.732071, -6.120066], [106.732983, -6.11623], [106.734511, -6.116144], [106.737295, -6.118824], [106.744879, -6.122056], [106.759578, -6.122575], [106.768986, -6.121556], [106.773273, -6.121631], [106.775143, -6.122331], [106.777314, -6.125803], [106.780547, -6.129163], [106.782103, -6.130267], [106.785721, -6.131472], [106.791439, -6.13228], [106.801659, -6.132006], [106.805847, -6.131399], [106.812794, -6.12965], [106.815124, -6.129728], [106.818649, -6.131503], [106.820369, -6.131732], [106.826671, -6.130646], [106.832179, -6.130091], [106.840313, -6.128551], [106.850338, -6.12609], [106.852229, -6.125522], [106.857979, -6.122982], [106.860172, -6.122271], [106.861961, -6.122204], [106.882183, -6.126247], [106.885436, -6.127387], [106.891823, -6.131052], [106.893067, -6.130794], [106.893551, -6.129335], [106.893079, -6.118182], [106.89326, -6.116911], [106.893767, -6.123362], [106.893887, -6.122917]]}}, {"type": "Feature", "properties": {"trip_id": 2, "nama": "Trip 2", "kendaraan": "Bus AKAP", "kode_kendaraan": "K-03", "trayek": "Cilegon – Jakarta", "arah": "Cilegon ke Jakarta", "hari": "Senin", "tanggal": "03-03-2025", "jam_mulai": "20:06", "jam_selesai": "23:14", "jam_berangkat": 20, "durasi_menit": 188.0, "kecepatan_rata": 40.4, "kecepatan_maks": 72.5, "jumlah_titik": 377, "jarak_km": 126.69, "liter_total": 38.26, "liter_jalan": 36.61, "liter_idle": 1.65, "menit_idle": 45.0, "liter_per_100km": 30.2, "km_per_liter": 3.31, "biaya_rp": 260152, "liter_boros": 2.06, "biaya_boros_rp": 14007, "jenis_bbm": "Biosolar", "harga_per_liter": 6800, "malam": false}, "geometry": {"type": "LineString", "coordinates": [[106.022506, -5.999488], [106.022512, -5.99597], [106.025914, -5.995688], [106.028498, -5.993616], [106.030664, -5.990609], [106.032159, -5.987686], [106.031784, -5.984111], [106.033845, -5.984157], [106.03879, -5.988237], [106.041922, -5.989809], [106.048191, -5.98983], [106.050982, -5.9911], [106.06423, -6.003478], [106.066501, -6.005276], [106.072102, -6.009036], [106.083532, -6.014783], [106.085898, -6.016303], [106.091555, -6.020936], [106.096225, -6.026011], [106.103715, -6.037785], [106.105899, -6.040518], [106.108492, -6.043185], [106.113962, -6.04803], [106.118227, -6.052778], [106.121867, -6.058546], [106.133164, -6.07988], [106.135136, -6.083173], [106.137977, -6.085688], [106.162409, -6.094397], [106.165704, -6.096001], [106.168973, -6.098193], [106.174015, -6.102595], [106.187506, -6.116973], [106.189072, -6.119625], [106.191715, -6.125552], [106.193787, -6.127723], [106.197207, -6.129433], [106.199834, -6.130435], [106.219026, -6.137271], [106.222518, -6.138048], [106.258485, -6.1388], [106.265637, -6.1402], [106.275164, -6.143035], [106.278359, -6.14346], [106.282111, -6.143224], [106.285301, -6.142334], [106.287981, -6.140116], [106.290836, -6.139853], [106.296538, -6.137027], [106.299333, -6.136186], [106.302145, -6.137806], [106.305283, -6.140316], [106.309176, -6.147579], [106.311505, -6.15055], [106.314067, -6.153209], [106.317321, -6.154938], [106.319685, -6.158088], [106.32299, -6.160691], [106.326358, -6.162319], [106.329034, -6.164698], [106.3342, -6.169976], [106.338273, -6.176485], [106.339741, -6.179946], [106.340973, -6.183939], [106.34388, -6.190759], [106.347353, -6.196943], [106.349869, -6.203652], [106.352408, -6.20664], [106.355797, -6.207717], [106.359827, -6.207754], [106.363714, -6.205815], [106.368001, -6.205693], [106.371883, -6.20598], [106.375339, -6.207416], [106.377769, -6.209741], [106.382061, -6.209089], [106.38524, -6.207612], [106.395035, -6.213796], [106.398772, -6.214174], [106.403015, -6.215677], [106.406481, -6.215866], [106.416988, -6.218684], [106.420372, -6.221237], [106.422952, -6.224658], [106.426516, -6.22685], [106.430715, -6.228634], [106.434295, -6.227351], [106.4367, -6.224472], [106.441819, -6.217428], [106.444873, -6.214266], [106.4564, -6.198909], [106.459248, -6.197785], [106.458926, -6.202107], [106.462454, -6.204645], [106.46565, -6.20555], [106.469809, -6.205978], [106.473972, -6.205339], [106.477724, -6.203936], [106.481181, -6.202212], [106.485067, -6.200691], [106.489068, -6.200027], [106.49325, -6.200174], [106.515387, -6.204882], [106.51935, -6.205228], [106.528433, -6.205516], [106.533498, -6.205972], [106.542378, -6.207547], [106.546243, -6.209114], [106.553296, -6.214691], [106.557594, -6.217372], [106.561935, -6.219224], [106.566962, -6.22057], [106.575205, -6.221599], [106.611901, -6.224953], [106.61684, -6.224875], [106.621578, -6.224305], [106.667223, -6.217639], [106.693115, -6.210459], [106.697688, -6.208253], [106.717041, -6.193395], [106.720641, -6.191434], [106.72497, -6.190541], [106.729285, -6.190424], [106.73006, -6.186012], [106.728255, -6.177943], [106.7274, -6.168766], [106.726961, -6.158731], [106.727282, -6.154961], [106.727274, -6.150886], [106.729729, -6.137972], [106.729948, -6.132973], [106.729765, -6.128136], [106.730369, -6.123355], [106.73428, -6.115881], [106.737142, -6.118695], [106.744618, -6.121945], [106.757158, -6.122567], [106.761612, -6.1224], [106.770427, -6.121522], [106.77481, -6.122148], [106.777121, -6.125479], [106.780692, -6.129275], [106.784637, -6.131286], [106.789728, -6.132038], [106.793817, -6.132322], [106.803454, -6.131792], [106.8124, -6.129749], [106.81673, -6.130462], [106.820182, -6.131764], [106.833548, -6.129845], [106.837563, -6.129125], [106.850591, -6.126014], [106.859985, -6.122315], [106.865333, -6.122878], [106.87976, -6.125763], [106.884661, -6.127083], [106.892502, -6.131196], [106.893463, -6.127261], [106.893094, -6.118526], [106.893473, -6.119185], [106.893887, -6.122917]]}}]}