{"type": "FeatureCollection", "name": "titik_ujung", "crs": {"type": "name", "properties": {"name": "urn:ogc:def:crs:OGC:1.3:CRS84"}}, "features": [{"type": "Feature", "properties": {"trip_id": 1, "jenis": "Titik Awal", "hari": "Senin", "waktu": "03-03-2025 13:09", "jarak_km": 126.8, "liter_total": 41.19, "biaya_rp": 280065}, "geometry": {"type": "Point", "coordinates": [106.022506, -5.999779]}}, {"type": "Feature", "properties": {"trip_id": 1, "jenis": "Titik Akhir", "hari": "Senin", "waktu": "03-03-2025 17:26", "jarak_km": 126.8, "liter_total": 41.19, "biaya_rp": 280065}, "geometry": {"type": "Point", "coordinates": [106.893887, -6.122917]}}, {"type": "Feature", "properties": {"trip_id": 2, "jenis": "Titik Awal", "hari": "Senin", "waktu": "03-03-2025 20:06", "jarak_km": 126.69, "liter_total": 38.26, "biaya_rp": 260152}, "geometry": {"type": "Point", "coordinates": [106.022506, -5.999488]}}, {"type": "Feature", "properties": {"trip_id": 2, "jenis": "Titik Akhir", "hari": "Senin", "waktu": "03-03-2025 23:14", "jarak_km": 126.69, "liter_total": 38.26, "biaya_rp": 260152}, "geometry": {"type": "Point", "coordinates": [106.893887, -6.122917]}}]}